{"fetched_at":"2026-07-14T17:40:25.184Z","source":"https://celestrak.org/NORAD/elements/gp.php?GROUP=planet&FORMAT=JSON","constellation":"superdove","records":[{"OBJECT_NAME":"FLOCK 4H-16","OBJECT_ID":"2025-276BF","EPOCH":"2026-07-14T03:34:41.454624","CLASSIFICATION_TYPE":"U","MEAN_MOTION":15.20142443,"ECCENTRICITY":0.0002748,"INCLINATION":97.4232,"RA_OF_ASC_NODE":268.3036,"ARG_OF_PERICENTER":262.1081,"MEAN_ANOMALY":97.9843,"EPHEMERIS_TYPE":0,"NORAD_CAT_ID":66719,"ELEMENT_SET_NO":999,"REV_AT_EPOCH":3451,"BSTAR":0.00019377,"MEAN_MOTION_DOT":0.00004122,"MEAN_MOTION_DDOT":0},{"OBJECT_NAME":"FLOCK 4H-18","OBJECT_ID":"2025-276BH","EPOCH":"2026-07-14T03:43:30.988992","CLASSIFICATION_TYPE":"U","MEAN_MOTION":15.20083379,"ECCENTRICITY":0.0002223,"INCLINATION":97.4174,"RA_OF_ASC_NODE":268.1241,"ARG_OF_PERICENTER":298.6325,"MEAN_ANOMALY":61.4686,"EPHEMERIS_TYPE":0,"NORAD_CAT_ID":66721,"ELEMENT_SET_NO":999,"REV_AT_EPOCH":3451,"BSTAR":0.00019227,"MEAN_MOTION_DOT":0.00004083,"MEAN_MOTION_DDOT":0},{"OBJECT_NAME":"FLOCK 4H-19","OBJECT_ID":"2025-276BJ","EPOCH":"2026-07-14T03:43:38.280288","CLASSIFICATION_TYPE":"U","MEAN_MOTION":15.21278407,"ECCENTRICITY":0.0002292,"INCLINATION":97.4176,"RA_OF_ASC_NODE":268.5849,"ARG_OF_PERICENTER":151.2076,"MEAN_ANOMALY":208.9287,"EPHEMERIS_TYPE":0,"NORAD_CAT_ID":66722,"ELEMENT_SET_NO":999,"REV_AT_EPOCH":3383,"BSTAR":0.00016214,"MEAN_MOTION_DOT":0.00003555,"MEAN_MOTION_DDOT":0},{"OBJECT_NAME":"FLOCK 4H-20","OBJECT_ID":"2025-276BK","EPOCH":"2026-07-14T03:46:53.160672","CLASSIFICATION_TYPE":"U","MEAN_MOTION":15.21437243,"ECCENTRICITY":0.0002737,"INCLINATION":97.4212,"RA_OF_ASC_NODE":268.6922,"ARG_OF_PERICENTER":173.1117,"MEAN_ANOMALY":187.0157,"EPHEMERIS_TYPE":0,"NORAD_CAT_ID":66723,"ELEMENT_SET_NO":999,"REV_AT_EPOCH":3379,"BSTAR":0.00017831,"MEAN_MOTION_DOT":0.00003935,"MEAN_MOTION_DDOT":0},{"OBJECT_NAME":"FLOCK 4H-21","OBJECT_ID":"2025-276BL","EPOCH":"2026-07-14T04:31:37.877376","CLASSIFICATION_TYPE":"U","MEAN_MOTION":15.21023524,"ECCENTRICITY":0.0002573,"INCLINATION":97.4179,"RA_OF_ASC_NODE":268.5479,"ARG_OF_PERICENTER":172.139,"MEAN_ANOMALY":187.9886,"EPHEMERIS_TYPE":0,"NORAD_CAT_ID":66724,"ELEMENT_SET_NO":999,"REV_AT_EPOCH":3379,"BSTAR":0.0001519,"MEAN_MOTION_DOT":0.00003301,"MEAN_MOTION_DDOT":0},{"OBJECT_NAME":"FLOCK 4H-22","OBJECT_ID":"2025-276BM","EPOCH":"2026-07-14T04:00:32.961024","CLASSIFICATION_TYPE":"U","MEAN_MOTION":15.20514191,"ECCENTRICITY":0.0001074,"INCLINATION":97.4169,"RA_OF_ASC_NODE":268.2381,"ARG_OF_PERICENTER":305.3995,"MEAN_ANOMALY":54.714,"EPHEMERIS_TYPE":0,"NORAD_CAT_ID":66725,"ELEMENT_SET_NO":999,"REV_AT_EPOCH":3452,"BSTAR":0.00019966,"MEAN_MOTION_DOT":0.00004296,"MEAN_MOTION_DDOT":0},{"OBJECT_NAME":"FLOCK 4H-23","OBJECT_ID":"2025-276BN","EPOCH":"2026-07-14T03:42:32.448672","CLASSIFICATION_TYPE":"U","MEAN_MOTION":15.20062416,"ECCENTRICITY":0.0002929,"INCLINATION":97.4238,"RA_OF_ASC_NODE":268.3103,"ARG_OF_PERICENTER":249.8339,"MEAN_ANOMALY":110.2581,"EPHEMERIS_TYPE":0,"NORAD_CAT_ID":66726,"ELEMENT_SET_NO":999,"REV_AT_EPOCH":3451,"BSTAR":0.00019842,"MEAN_MOTION_DOT":0.00004213,"MEAN_MOTION_DDOT":0},{"OBJECT_NAME":"FLOCK 4H-24","OBJECT_ID":"2025-276BP","EPOCH":"2026-07-14T03:20:44.486592","CLASSIFICATION_TYPE":"U","MEAN_MOTION":15.201724,"ECCENTRICITY":0.000238,"INCLINATION":97.4235,"RA_OF_ASC_NODE":268.3242,"ARG_OF_PERICENTER":275.8633,"MEAN_ANOMALY":84.233,"EPHEMERIS_TYPE":0,"NORAD_CAT_ID":66727,"ELEMENT_SET_NO":999,"REV_AT_EPOCH":3451,"BSTAR":0.00019959,"MEAN_MOTION_DOT":0.00004252,"MEAN_MOTION_DDOT":0},{"OBJECT_NAME":"FLOCK 4H-25","OBJECT_ID":"2025-276BQ","EPOCH":"2026-07-14T03:23:25.266624","CLASSIFICATION_TYPE":"U","MEAN_MOTION":15.20937672,"ECCENTRICITY":0.0001782,"INCLINATION":97.4189,"RA_OF_ASC_NODE":268.493,"ARG_OF_PERICENTER":127.0835,"MEAN_ANOMALY":233.0563,"EPHEMERIS_TYPE":0,"NORAD_CAT_ID":66728,"ELEMENT_SET_NO":999,"REV_AT_EPOCH":3381,"BSTAR":0.00018773,"MEAN_MOTION_DOT":0.00004086,"MEAN_MOTION_DDOT":0},{"OBJECT_NAME":"FLOCK 4H-26","OBJECT_ID":"2025-276BR","EPOCH":"2026-07-14T04:08:36.517632","CLASSIFICATION_TYPE":"U","MEAN_MOTION":15.19894743,"ECCENTRICITY":0.0003202,"INCLINATION":97.4189,"RA_OF_ASC_NODE":268.14,"ARG_OF_PERICENTER":271.3791,"MEAN_ANOMALY":88.7077,"EPHEMERIS_TYPE":0,"NORAD_CAT_ID":66729,"ELEMENT_SET_NO":999,"REV_AT_EPOCH":3451,"BSTAR":0.00018148,"MEAN_MOTION_DOT":0.00003829,"MEAN_MOTION_DDOT":0},{"OBJECT_NAME":"FLOCK 4H-27","OBJECT_ID":"2025-276BS","EPOCH":"2026-07-14T04:07:19.879968","CLASSIFICATION_TYPE":"U","MEAN_MOTION":15.20761656,"ECCENTRICITY":0.0001495,"INCLINATION":97.4166,"RA_OF_ASC_NODE":268.3765,"ARG_OF_PERICENTER":125.9442,"MEAN_ANOMALY":234.1932,"EPHEMERIS_TYPE":0,"NORAD_CAT_ID":66730,"ELEMENT_SET_NO":999,"REV_AT_EPOCH":3453,"BSTAR":0.00017441,"MEAN_MOTION_DOT":0.00003772,"MEAN_MOTION_DDOT":0},{"OBJECT_NAME":"FLOCK 4H-29","OBJECT_ID":"2025-276BU","EPOCH":"2026-07-14T03:39:16.089120","CLASSIFICATION_TYPE":"U","MEAN_MOTION":15.2003525,"ECCENTRICITY":0.0001714,"INCLINATION":97.4167,"RA_OF_ASC_NODE":268.1024,"ARG_OF_PERICENTER":292.0451,"MEAN_ANOMALY":68.0602,"EPHEMERIS_TYPE":0,"NORAD_CAT_ID":66732,"ELEMENT_SET_NO":999,"REV_AT_EPOCH":3451,"BSTAR":0.00019891,"MEAN_MOTION_DOT":0.0000422,"MEAN_MOTION_DDOT":0},{"OBJECT_NAME":"FLOCK 4H-30","OBJECT_ID":"2025-276BV","EPOCH":"2026-07-14T03:27:43.640640","CLASSIFICATION_TYPE":"U","MEAN_MOTION":15.20158063,"ECCENTRICITY":0.0002624,"INCLINATION":97.4228,"RA_OF_ASC_NODE":268.3009,"ARG_OF_PERICENTER":270.7009,"MEAN_ANOMALY":89.3925,"EPHEMERIS_TYPE":0,"NORAD_CAT_ID":66733,"ELEMENT_SET_NO":999,"REV_AT_EPOCH":3451,"BSTAR":0.0001907,"MEAN_MOTION_DOT":0.00004058,"MEAN_MOTION_DDOT":0},{"OBJECT_NAME":"FLOCK 4H-31","OBJECT_ID":"2025-276BW","EPOCH":"2026-07-14T03:57:42.689088","CLASSIFICATION_TYPE":"U","MEAN_MOTION":15.19933985,"ECCENTRICITY":0.0002176,"INCLINATION":97.4166,"RA_OF_ASC_NODE":268.0823,"ARG_OF_PERICENTER":283.1228,"MEAN_ANOMALY":76.9764,"EPHEMERIS_TYPE":0,"NORAD_CAT_ID":66734,"ELEMENT_SET_NO":999,"REV_AT_EPOCH":3451,"BSTAR":0.00017848,"MEAN_MOTION_DOT":0.00003768,"MEAN_MOTION_DDOT":0},{"OBJECT_NAME":"FLOCK 4H-32","OBJECT_ID":"2025-276BX","EPOCH":"2026-07-14T03:40:24.937824","CLASSIFICATION_TYPE":"U","MEAN_MOTION":15.20053641,"ECCENTRICITY":0.0003037,"INCLINATION":97.422,"RA_OF_ASC_NODE":268.2658,"ARG_OF_PERICENTER":267.3728,"MEAN_ANOMALY":92.716,"EPHEMERIS_TYPE":0,"NORAD_CAT_ID":66735,"ELEMENT_SET_NO":999,"REV_AT_EPOCH":3451,"BSTAR":0.00019051,"MEAN_MOTION_DOT":0.00004041,"MEAN_MOTION_DDOT":0},{"OBJECT_NAME":"FLOCK 4H-33","OBJECT_ID":"2025-276BY","EPOCH":"2026-07-14T04:16:01.295328","CLASSIFICATION_TYPE":"U","MEAN_MOTION":15.21181692,"ECCENTRICITY":0.0002609,"INCLINATION":97.4217,"RA_OF_ASC_NODE":268.6816,"ARG_OF_PERICENTER":165.2884,"MEAN_ANOMALY":194.8428,"EPHEMERIS_TYPE":0,"NORAD_CAT_ID":66736,"ELEMENT_SET_NO":999,"REV_AT_EPOCH":3454,"BSTAR":0.00015999,"MEAN_MOTION_DOT":0.00003497,"MEAN_MOTION_DDOT":0}]}
