FLOCK 4H-16             
1 66719U 25276BF  26195.14909091  .00004122  00000+0  19377-3 0  9995
2 66719  97.4232 268.3036 0002748 262.1081  97.9843 15.20142443 34516
FLOCK 4H-18             
1 66721U 25276BH  26195.15521978  .00004083  00000+0  19227-3 0  9993
2 66721  97.4174 268.1241 0002223 298.6325  61.4686 15.20083379 34516
FLOCK 4H-19             
1 66722U 25276BJ  26195.15530417  .00003555  00000+0  16214-3 0  9998
2 66722  97.4176 268.5849 0002292 151.2076 208.9287 15.21278407 33838
FLOCK 4H-20             
1 66723U 25276BK  26195.15755973  .00003935  00000+0  17831-3 0  9993
2 66723  97.4212 268.6922 0002737 173.1117 187.0157 15.21437243 33799
FLOCK 4H-21             
1 66724U 25276BL  26195.18863284  .00003301  00000+0  15190-3 0  9995
2 66724  97.4179 268.5479 0002573 172.1390 187.9886 15.21023524 33799
FLOCK 4H-22             
1 66725U 25276BM  26195.16704816  .00004296  00000+0  19966-3 0  9998
2 66725  97.4169 268.2381 0001074 305.3995  54.7140 15.20514191 34524
FLOCK 4H-23             
1 66726U 25276BN  26195.15454223  .00004213  00000+0  19842-3 0  9994
2 66726  97.4238 268.3103 0002929 249.8339 110.2581 15.20062416 34513
FLOCK 4H-24             
1 66727U 25276BP  26195.13940378  .00004252  00000+0  19959-3 0  9996
2 66727  97.4235 268.3242 0002380 275.8633  84.2330 15.20172400 34519
FLOCK 4H-25             
1 66728U 25276BQ  26195.14126466  .00004086  00000+0  18773-3 0  9990
2 66728  97.4189 268.4930 0001782 127.0835 233.0563 15.20937672 33814
FLOCK 4H-26             
1 66729U 25276BR  26195.17264488  .00003829  00000+0  18148-3 0  9991
2 66729  97.4189 268.1400 0003202 271.3791  88.7077 15.19894743 34519
FLOCK 4H-27             
1 66730U 25276BS  26195.17175787  .00003772  00000+0  17441-3 0  9998
2 66730  97.4166 268.3765 0001495 125.9442 234.1932 15.20761656 34538
FLOCK 4H-29             
1 66732U 25276BU  26195.15226955  .00004220  00000+0  19891-3 0  9992
2 66732  97.4167 268.1024 0001714 292.0451  68.0602 15.20035250 34517
FLOCK 4H-30             
1 66733U 25276BV  26195.14425510  .00004058  00000+0  19070-3 0  9998
2 66733  97.4228 268.3009 0002624 270.7009  89.3925 15.20158063 34516
FLOCK 4H-31             
1 66734U 25276BW  26195.16507742  .00003768  00000+0  17848-3 0  9997
2 66734  97.4166 268.0823 0002176 283.1228  76.9764 15.19933985 34517
FLOCK 4H-32             
1 66735U 25276BX  26195.15306641  .00004041  00000+0  19051-3 0  9995
2 66735  97.4220 268.2658 0003037 267.3728  92.7160 15.20053641 34513
FLOCK 4H-33             
1 66736U 25276BY  26195.17779277  .00003497  00000+0  15999-3 0  9998
2 66736  97.4217 268.6816 0002609 165.2884 194.8428 15.21181692 34546
